CCSDS_OMM_VERS = 2.0
CREATION_DATE  = 
ORIGINATOR     = 

OBJECT_NAME    = CORAL
OBJECT_ID      = 1998-067YA
CENTER_NAME    = EARTH
REF_FRAME      = TEME
TIME_SYSTEM    = UTC
MEAN_ELEMENT_THEORY = SGP/SGP4

EPOCH          = 2026-03-31T00:30:40.600800
MEAN_MOTION    = 15.58042786
ECCENTRICITY   = .0012998
INCLINATION    = 51.6301
RA_OF_ASC_NODE = 324.8554
ARG_OF_PERICENTER = 253.1884
MEAN_ANOMALY   = 106.7683

EPHEMERIS_TYPE = 0
CLASSIFICATION_TYPE = U
NORAD_CAT_ID   = 67684
ELEMENT_SET_NO = 999
REV_AT_EPOCH   = 811
BSTAR          = .13874E-2
MEAN_MOTION_DOT = .107484E-2
MEAN_MOTION_DDOT = 0

CCSDS_OMM_VERS = 2.0
CREATION_DATE  = 
ORIGINATOR     = 

OBJECT_NAME    = GXIBA-1
OBJECT_ID      = 1998-067YB
CENTER_NAME    = EARTH
REF_FRAME      = TEME
TIME_SYSTEM    = UTC
MEAN_ELEMENT_THEORY = SGP/SGP4

EPOCH          = 2026-03-31T02:01:44.064192
MEAN_MOTION    = 15.54210911
ECCENTRICITY   = .0012136
INCLINATION    = 51.6316
RA_OF_ASC_NODE = 325.2780
ARG_OF_PERICENTER = 260.3395
MEAN_ANOMALY   = 99.6225

EPHEMERIS_TYPE = 0
CLASSIFICATION_TYPE = U
NORAD_CAT_ID   = 67685
ELEMENT_SET_NO = 999
REV_AT_EPOCH   = 811
BSTAR          = .84686E-3
MEAN_MOTION_DOT = .56311E-3
MEAN_MOTION_DDOT = 0

CCSDS_OMM_VERS = 2.0
CREATION_DATE  = 
ORIGINATOR     = 

OBJECT_NAME    = UITMSAT-2
OBJECT_ID      = 1998-067YC
CENTER_NAME    = EARTH
REF_FRAME      = TEME
TIME_SYSTEM    = UTC
MEAN_ELEMENT_THEORY = SGP/SGP4

EPOCH          = 2026-03-31T01:38:39.460128
MEAN_MOTION    = 15.55217837
ECCENTRICITY   = .0009294
INCLINATION    = 51.6313
RA_OF_ASC_NODE = 325.1732
ARG_OF_PERICENTER = 232.9927
MEAN_ANOMALY   = 127.0214

EPHEMERIS_TYPE = 0
CLASSIFICATION_TYPE = U
NORAD_CAT_ID   = 67686
ELEMENT_SET_NO = 999
REV_AT_EPOCH   = 811
BSTAR          = .10596E-2
MEAN_MOTION_DOT = .73306E-3
MEAN_MOTION_DDOT = 0

CCSDS_OMM_VERS = 2.0
CREATION_DATE  = 
ORIGINATOR     = 

OBJECT_NAME    = HMU-SAT2
OBJECT_ID      = 1998-067YD
CENTER_NAME    = EARTH
REF_FRAME      = TEME
TIME_SYSTEM    = UTC
MEAN_ELEMENT_THEORY = SGP/SGP4

EPOCH          = 2026-03-31T00:36:45.632160
MEAN_MOTION    = 15.53944298
ECCENTRICITY   = .0008715
INCLINATION    = 51.6319
RA_OF_ASC_NODE = 325.6365
ARG_OF_PERICENTER = 235.5876
MEAN_ANOMALY   = 124.4291

EPHEMERIS_TYPE = 0
CLASSIFICATION_TYPE = U
NORAD_CAT_ID   = 67687
ELEMENT_SET_NO = 999
REV_AT_EPOCH   = 802
BSTAR          = .82322E-3
MEAN_MOTION_DOT = .54096E-3
MEAN_MOTION_DDOT = 0

CCSDS_OMM_VERS = 2.0
CREATION_DATE  = 
ORIGINATOR     = 

OBJECT_NAME    = LEOPARD
OBJECT_ID      = 1998-067YE
CENTER_NAME    = EARTH
REF_FRAME      = TEME
TIME_SYSTEM    = UTC
MEAN_ELEMENT_THEORY = SGP/SGP4

EPOCH          = 2026-03-30T22:44:03.916320
MEAN_MOTION    = 15.54742267
ECCENTRICITY   = .000893
INCLINATION    = 51.6318
RA_OF_ASC_NODE = 325.8641
ARG_OF_PERICENTER = 232.9146
MEAN_ANOMALY   = 127.1029

EPHEMERIS_TYPE = 0
CLASSIFICATION_TYPE = U
NORAD_CAT_ID   = 67688
ELEMENT_SET_NO = 999
REV_AT_EPOCH   = 801
BSTAR          = .94733E-3
MEAN_MOTION_DOT = .64267E-3
MEAN_MOTION_DDOT = 0

CCSDS_OMM_VERS = 2.0
CREATION_DATE  = 
ORIGINATOR     = 

OBJECT_NAME    = CREW DRAGON 12
OBJECT_ID      = 2026-031A
CENTER_NAME    = EARTH
REF_FRAME      = TEME
TIME_SYSTEM    = UTC
MEAN_ELEMENT_THEORY = SGP/SGP4

EPOCH          = 2026-03-31T03:11:39.798528
MEAN_MOTION    = 15.48671303
ECCENTRICITY   = .0006203
INCLINATION    = 51.6341
RA_OF_ASC_NODE = 326.3497
ARG_OF_PERICENTER = 253.7499
MEAN_ANOMALY   = 106.2807

EPHEMERIS_TYPE = 0
CLASSIFICATION_TYPE = U
NORAD_CAT_ID   = 67796
ELEMENT_SET_NO = 999
REV_AT_EPOCH   = 55961
BSTAR          = .21777E-3
MEAN_MOTION_DOT = .11434E-3
MEAN_MOTION_DDOT = 0

CCSDS_OMM_VERS = 2.0
CREATION_DATE  = 
ORIGINATOR     = 

OBJECT_NAME    = PROGRESS-MS 33
OBJECT_ID      = 2026-058A
CENTER_NAME    = EARTH
REF_FRAME      = TEME
TIME_SYSTEM    = UTC
MEAN_ELEMENT_THEORY = SGP/SGP4

EPOCH          = 2026-03-31T03:11:39.798528
MEAN_MOTION    = 15.48671303
ECCENTRICITY   = .0006203
INCLINATION    = 51.6341
RA_OF_ASC_NODE = 326.3497
ARG_OF_PERICENTER = 253.7499
MEAN_ANOMALY   = 106.2807

EPHEMERIS_TYPE = 0
CLASSIFICATION_TYPE = U
NORAD_CAT_ID   = 68319
ELEMENT_SET_NO = 999
REV_AT_EPOCH   = 112
BSTAR          = .21777E-3
MEAN_MOTION_DOT = .11434E-3
MEAN_MOTION_DDOT = 0

